{
  "type": "FeatureCollection",
  "name": "lvfe-enugu-factions-v0.2",
  "crs": {
    "type": "name",
    "properties": {
      "name": "EPSG:4326"
    }
  },
  "properties": {
    "game": "Lvfe: The Xperience",
    "city": "Enugu",
    "version": "0.2",
    "license": "ODbL-1.0",
    "rules": [
      "Check-in territory = smallest containing polygon",
      "role=playable_faction is a live faction; prize_zone is a monument/prize; unclaimed is mapped but not a faction yet",
      "parent_id groups extensions with their core (New Haven, Trans-Ekulu)",
      "Ogbete is a small market polygon, adjacent to Coal Camp, not nested",
      "OSM suburb ways, ODbL; walk edges before competitive season"
    ],
    "updated": "2026-09-02"
  },
  "features": [
    {
      "type": "Feature",
      "id": "independence_layout",
      "properties": {
        "faction_id": "independence_layout",
        "name": "Independence Layout",
        "code": "IND",
        "source": "OpenStreetMap",
        "osm_way_id": 273509964,
        "license": "ODbL-1.0",
        "attribution": "\u00a9 OpenStreetMap contributors",
        "status": "osm_polygon",
        "nested_in": null,
        "color": "#2ecc71",
        "note": null,
        "containment_rule": "smallest_containing",
        "role": "playable_faction",
        "parent_id": null
      },
      "geometry": {
        "type": "Polygon",
        "coordinates": [
          [
            [
              7.514816,
              6.454823
            ],
            [
              7.51573,
              6.455123
            ],
            [
              7.516586,
              6.454623
            ],
            [
              7.517257,
              6.455194
            ],
            [
              7.518014,
              6.454152
            ],
            [
              7.51907,
              6.45438
            ],
            [
              7.520312,
              6.453524
            ],
            [
              7.521198,
              6.454066
            ],
            [
              7.523082,
              6.453267
            ],
            [
              7.524153,
              6.453509
            ],
            [
              7.52451,
              6.452596
            ],
            [
              7.524667,
              6.452738
            ],
            [
              7.525052,
              6.453038
            ],
            [
              7.526366,
              6.453124
            ],
            [
              7.528893,
              6.45261
            ],
            [
              7.529007,
              6.452667
            ],
            [
              7.529221,
              6.45301
            ],
            [
              7.528621,
              6.453481
            ],
            [
              7.529107,
              6.454209
            ],
            [
              7.531348,
              6.453267
            ],
            [
              7.532262,
              6.453895
            ],
            [
              7.535546,
              6.453824
            ],
            [
              7.537031,
              6.455008
            ],
            [
              7.538715,
              6.454537
            ],
            [
              7.538915,
              6.45498
            ],
            [
              7.539143,
              6.45528
            ],
            [
              7.540175,
              6.454968
            ],
            [
              7.539491,
              6.448606
            ],
            [
              7.539218,
              6.434298
            ],
            [
              7.537452,
              6.423178
            ],
            [
              7.536048,
              6.420649
            ],
            [
              7.529726,
              6.413636
            ],
            [
              7.52494,
              6.40606
            ],
            [
              7.52313,
              6.406798
            ],
            [
              7.522121,
              6.406265
            ],
            [
              7.522121,
              6.406626
            ],
            [
              7.521816,
              6.406912
            ],
            [
              7.52056,
              6.406817
            ],
            [
              7.519685,
              6.407254
            ],
            [
              7.518809,
              6.407502
            ],
            [
              7.516317,
              6.409061
            ],
            [
              7.51645,
              6.410603
            ],
            [
              7.515727,
              6.410774
            ],
            [
              7.513233,
              6.410945
            ],
            [
              7.509959,
              6.409251
            ],
            [
              7.507808,
              6.409974
            ],
            [
              7.497484,
              6.425293
            ],
            [
              7.497872,
              6.424827
            ],
            [
              7.497116,
              6.426667
            ],
            [
              7.499488,
              6.430479
            ],
            [
              7.506973,
              6.440366
            ],
            [
              7.507026,
              6.440716
            ],
            [
              7.506144,
              6.440496
            ],
            [
              7.50608,
              6.440712
            ],
            [
              7.505795,
              6.441016
            ],
            [
              7.505214,
              6.442653
            ],
            [
              7.505347,
              6.4443
            ],
            [
              7.504579,
              6.445013
            ],
            [
              7.504941,
              6.445481
            ],
            [
              7.506297,
              6.445707
            ],
            [
              7.506595,
              6.446694
            ],
            [
              7.507106,
              6.446968
            ],
            [
              7.506714,
              6.448443
            ],
            [
              7.507213,
              6.44905
            ],
            [
              7.50788,
              6.448574
            ],
            [
              7.507963,
              6.448657
            ],
            [
              7.50807,
              6.448836
            ],
            [
              7.507749,
              6.450192
            ],
            [
              7.508367,
              6.450692
            ],
            [
              7.508415,
              6.451405
            ],
            [
              7.510771,
              6.452417
            ],
            [
              7.510735,
              6.45363
            ],
            [
              7.511913,
              6.453975
            ],
            [
              7.51227,
              6.45532
            ],
            [
              7.512611,
              6.455356
            ],
            [
              7.512792,
              6.454843
            ],
            [
              7.512802,
              6.45481
            ],
            [
              7.514245,
              6.455465
            ],
            [
              7.514816,
              6.454823
            ]
          ]
        ]
      }
    },
    {
      "type": "Feature",
      "id": "coal_camp",
      "properties": {
        "faction_id": "coal_camp",
        "name": "Coal Camp",
        "code": "COAL",
        "source": "OpenStreetMap",
        "osm_way_id": 273509948,
        "license": "ODbL-1.0",
        "attribution": "\u00a9 OpenStreetMap contributors",
        "status": "osm_polygon",
        "nested_in": null,
        "color": "#e67e22",
        "note": null,
        "containment_rule": "smallest_containing",
        "role": "playable_faction",
        "parent_id": null
      },
      "geometry": {
        "type": "Polygon",
        "coordinates": [
          [
            [
              7.473563,
              6.435293
            ],
            [
              7.474888,
              6.435361
            ],
            [
              7.475558,
              6.434112
            ],
            [
              7.476986,
              6.43316
            ],
            [
              7.477492,
              6.433517
            ],
            [
              7.477878,
              6.432982
            ],
            [
              7.478949,
              6.433636
            ],
            [
              7.481358,
              6.432625
            ],
            [
              7.482275,
              6.432671
            ],
            [
              7.483381,
              6.433309
            ],
            [
              7.48463,
              6.433666
            ],
            [
              7.484962,
              6.433686
            ],
            [
              7.486117,
              6.433755
            ],
            [
              7.488281,
              6.433226
            ],
            [
              7.488306,
              6.433206
            ],
            [
              7.488735,
              6.432744
            ],
            [
              7.483946,
              6.427569
            ],
            [
              7.483649,
              6.425725
            ],
            [
              7.482637,
              6.423732
            ],
            [
              7.482221,
              6.422036
            ],
            [
              7.481659,
              6.421438
            ],
            [
              7.481326,
              6.420894
            ],
            [
              7.481003,
              6.41703
            ],
            [
              7.481212,
              6.416706
            ],
            [
              7.48144,
              6.416135
            ],
            [
              7.481326,
              6.41446
            ],
            [
              7.481855,
              6.41233
            ],
            [
              7.478667,
              6.410046
            ],
            [
              7.475812,
              6.409285
            ],
            [
              7.472052,
              6.409237
            ],
            [
              7.469387,
              6.40919
            ],
            [
              7.467198,
              6.410141
            ],
            [
              7.463391,
              6.413235
            ],
            [
              7.462344,
              6.415281
            ],
            [
              7.461963,
              6.417089
            ],
            [
              7.462058,
              6.418517
            ],
            [
              7.46301,
              6.419421
            ],
            [
              7.464818,
              6.419802
            ],
            [
              7.46715,
              6.420706
            ],
            [
              7.467912,
              6.421943
            ],
            [
              7.469069,
              6.421838
            ],
            [
              7.464671,
              6.426237
            ],
            [
              7.460303,
              6.426237
            ],
            [
              7.459652,
              6.426237
            ],
            [
              7.459051,
              6.429056
            ],
            [
              7.460389,
              6.432893
            ],
            [
              7.461252,
              6.435034
            ],
            [
              7.46259,
              6.437265
            ],
            [
              7.46375,
              6.438336
            ],
            [
              7.465892,
              6.438811
            ],
            [
              7.468331,
              6.438901
            ],
            [
              7.471733,
              6.437465
            ],
            [
              7.473179,
              6.437473
            ],
            [
              7.47306,
              6.436581
            ],
            [
              7.473404,
              6.435926
            ],
            [
              7.473563,
              6.435293
            ]
          ]
        ]
      }
    },
    {
      "type": "Feature",
      "id": "ogbete",
      "properties": {
        "faction_id": "ogbete",
        "name": "Ogbete",
        "code": "OGB",
        "source": "OpenStreetMap",
        "osm_way_id": 273509971,
        "license": "ODbL-1.0",
        "attribution": "\u00a9 OpenStreetMap contributors",
        "status": "osm_polygon",
        "nested_in": null,
        "color": "#f1c40f",
        "note": "OSM maps Ogbete as a small market polygon west of Independence Layout. Centroid is NOT inside the Coal Camp polygon. Treat as a prize/core zone, not a nested hole.",
        "relation": "adjacent_to_coal_camp",
        "containment_rule": "smallest_containing",
        "role": "prize_zone",
        "parent_id": null
      },
      "geometry": {
        "type": "Polygon",
        "coordinates": [
          [
            [
              7.488492,
              6.437093
            ],
            [
              7.488669,
              6.436837
            ],
            [
              7.487798,
              6.436308
            ],
            [
              7.485828,
              6.436165
            ],
            [
              7.485714,
              6.434766
            ],
            [
              7.485691,
              6.43373
            ],
            [
              7.485617,
              6.433685
            ],
            [
              7.485033,
              6.433321
            ],
            [
              7.48463,
              6.433666
            ],
            [
              7.481358,
              6.432625
            ],
            [
              7.479223,
              6.433607
            ],
            [
              7.480051,
              6.433826
            ],
            [
              7.480895,
              6.435235
            ],
            [
              7.480867,
              6.436841
            ],
            [
              7.481727,
              6.438211
            ],
            [
              7.485996,
              6.438246
            ],
            [
              7.486421,
              6.438366
            ],
            [
              7.487132,
              6.438793
            ],
            [
              7.488492,
              6.437093
            ]
          ]
        ]
      }
    },
    {
      "type": "Feature",
      "id": "abakpa",
      "properties": {
        "faction_id": "abakpa",
        "name": "Abakpa",
        "code": "ABK",
        "source": "OpenStreetMap",
        "osm_way_id": 273509909,
        "license": "ODbL-1.0",
        "attribution": "\u00a9 OpenStreetMap contributors",
        "status": "osm_polygon",
        "nested_in": null,
        "color": "#9b59b6",
        "note": null,
        "containment_rule": "smallest_containing",
        "role": "playable_faction",
        "parent_id": null
      },
      "geometry": {
        "type": "Polygon",
        "coordinates": [
          [
            [
              7.517281,
              6.500548
            ],
            [
              7.518143,
              6.500013
            ],
            [
              7.519269,
              6.50015
            ],
            [
              7.519198,
              6.500039
            ],
            [
              7.520136,
              6.498853
            ],
            [
              7.520642,
              6.498466
            ],
            [
              7.521772,
              6.497663
            ],
            [
              7.522913,
              6.495789
            ],
            [
              7.523884,
              6.495427
            ],
            [
              7.524522,
              6.493847
            ],
            [
              7.525768,
              6.493809
            ],
            [
              7.525159,
              6.49301
            ],
            [
              7.52533,
              6.492001
            ],
            [
              7.526834,
              6.491963
            ],
            [
              7.529157,
              6.489983
            ],
            [
              7.530927,
              6.489393
            ],
            [
              7.531231,
              6.488232
            ],
            [
              7.532831,
              6.487737
            ],
            [
              7.533459,
              6.486519
            ],
            [
              7.533782,
              6.486747
            ],
            [
              7.534315,
              6.486443
            ],
            [
              7.535001,
              6.486937
            ],
            [
              7.535429,
              6.486333
            ],
            [
              7.536457,
              6.486847
            ],
            [
              7.536728,
              6.48669
            ],
            [
              7.536956,
              6.486419
            ],
            [
              7.538356,
              6.486447
            ],
            [
              7.538898,
              6.485576
            ],
            [
              7.539669,
              6.485448
            ],
            [
              7.539626,
              6.48492
            ],
            [
              7.54104,
              6.485305
            ],
            [
              7.541796,
              6.484648
            ],
            [
              7.542125,
              6.483378
            ],
            [
              7.543024,
              6.483535
            ],
            [
              7.543024,
              6.484192
            ],
            [
              7.544238,
              6.483135
            ],
            [
              7.544423,
              6.483292
            ],
            [
              7.544537,
              6.483421
            ],
            [
              7.545418,
              6.482842
            ],
            [
              7.546599,
              6.483889
            ],
            [
              7.547113,
              6.480063
            ],
            [
              7.543915,
              6.479111
            ],
            [
              7.541947,
              6.476803
            ],
            [
              7.541699,
              6.476813
            ],
            [
              7.54089,
              6.476984
            ],
            [
              7.539777,
              6.476594
            ],
            [
              7.537584,
              6.476736
            ],
            [
              7.536057,
              6.476409
            ],
            [
              7.533427,
              6.477564
            ],
            [
              7.530429,
              6.477945
            ],
            [
              7.527165,
              6.477492
            ],
            [
              7.526463,
              6.476743
            ],
            [
              7.525999,
              6.476541
            ],
            [
              7.525273,
              6.476362
            ],
            [
              7.522953,
              6.476243
            ],
            [
              7.522656,
              6.476231
            ],
            [
              7.522382,
              6.476362
            ],
            [
              7.521716,
              6.476767
            ],
            [
              7.519598,
              6.476909
            ],
            [
              7.518123,
              6.476077
            ],
            [
              7.517742,
              6.476362
            ],
            [
              7.51731,
              6.476565
            ],
            [
              7.516868,
              6.482521
            ],
            [
              7.515461,
              6.487515
            ],
            [
              7.514974,
              6.492747
            ],
            [
              7.513903,
              6.49631
            ],
            [
              7.514847,
              6.50286
            ],
            [
              7.515288,
              6.502749
            ],
            [
              7.515883,
              6.502481
            ],
            [
              7.516626,
              6.500845
            ],
            [
              7.517281,
              6.500548
            ]
          ]
        ]
      }
    },
    {
      "type": "Feature",
      "id": "emene",
      "properties": {
        "faction_id": "emene",
        "name": "Emene",
        "code": "EMN",
        "source": "OpenStreetMap",
        "osm_way_id": 273509958,
        "license": "ODbL-1.0",
        "attribution": "\u00a9 OpenStreetMap contributors",
        "status": "osm_polygon",
        "nested_in": null,
        "color": "#3498db",
        "note": null,
        "containment_rule": "smallest_containing",
        "role": "playable_faction",
        "parent_id": null
      },
      "geometry": {
        "type": "Polygon",
        "coordinates": [
          [
            [
              7.638969,
              6.514795
            ],
            [
              7.599711,
              6.492961
            ],
            [
              7.581828,
              6.4817
            ],
            [
              7.580201,
              6.479226
            ],
            [
              7.578854,
              6.476608
            ],
            [
              7.583584,
              6.473816
            ],
            [
              7.58387,
              6.473506
            ],
            [
              7.583989,
              6.472959
            ],
            [
              7.583727,
              6.471698
            ],
            [
              7.585012,
              6.470746
            ],
            [
              7.585059,
              6.469318
            ],
            [
              7.588367,
              6.467629
            ],
            [
              7.588296,
              6.466082
            ],
            [
              7.587843,
              6.465702
            ],
            [
              7.587558,
              6.465606
            ],
            [
              7.587201,
              6.465654
            ],
            [
              7.586333,
              6.466606
            ],
            [
              7.585976,
              6.466749
            ],
            [
              7.585512,
              6.466392
            ],
            [
              7.584798,
              6.464678
            ],
            [
              7.584941,
              6.463893
            ],
            [
              7.585468,
              6.463036
            ],
            [
              7.585869,
              6.462287
            ],
            [
              7.585904,
              6.461538
            ],
            [
              7.586047,
              6.460574
            ],
            [
              7.586758,
              6.45965
            ],
            [
              7.58644,
              6.459039
            ],
            [
              7.586333,
              6.457933
            ],
            [
              7.586868,
              6.456719
            ],
            [
              7.586797,
              6.455934
            ],
            [
              7.587011,
              6.454828
            ],
            [
              7.587439,
              6.453685
            ],
            [
              7.58826,
              6.452293
            ],
            [
              7.589224,
              6.451508
            ],
            [
              7.590045,
              6.450152
            ],
            [
              7.590187,
              6.449045
            ],
            [
              7.590116,
              6.448367
            ],
            [
              7.589545,
              6.44801
            ],
            [
              7.589224,
              6.447618
            ],
            [
              7.589402,
              6.447261
            ],
            [
              7.591508,
              6.44669
            ],
            [
              7.593114,
              6.445512
            ],
            [
              7.593756,
              6.444405
            ],
            [
              7.594674,
              6.437623
            ],
            [
              7.59181,
              6.438914
            ],
            [
              7.587737,
              6.439618
            ],
            [
              7.586994,
              6.442988
            ],
            [
              7.585814,
              6.442911
            ],
            [
              7.585053,
              6.443349
            ],
            [
              7.585871,
              6.444149
            ],
            [
              7.585586,
              6.44451
            ],
            [
              7.584501,
              6.443844
            ],
            [
              7.584015,
              6.446372
            ],
            [
              7.581493,
              6.444853
            ],
            [
              7.580484,
              6.445291
            ],
            [
              7.580122,
              6.443939
            ],
            [
              7.579056,
              6.444453
            ],
            [
              7.578219,
              6.442474
            ],
            [
              7.578695,
              6.441312
            ],
            [
              7.577705,
              6.44097
            ],
            [
              7.577208,
              6.43998
            ],
            [
              7.576184,
              6.439325
            ],
            [
              7.57597,
              6.440789
            ],
            [
              7.57484,
              6.440277
            ],
            [
              7.573737,
              6.441427
            ],
            [
              7.570177,
              6.441142
            ],
            [
              7.570729,
              6.442303
            ],
            [
              7.569016,
              6.443179
            ],
            [
              7.568331,
              6.445254
            ],
            [
              7.56795,
              6.445292
            ],
            [
              7.567588,
              6.445311
            ],
            [
              7.56677,
              6.44453
            ],
            [
              7.565551,
              6.444873
            ],
            [
              7.564961,
              6.444054
            ],
            [
              7.563724,
              6.444854
            ],
            [
              7.563039,
              6.444797
            ],
            [
              7.561592,
              6.447614
            ],
            [
              7.561877,
              6.44868
            ],
            [
              7.560869,
              6.449365
            ],
            [
              7.559879,
              6.44946
            ],
            [
              7.558603,
              6.451021
            ],
            [
              7.556947,
              6.45203
            ],
            [
              7.553635,
              6.452392
            ],
            [
              7.553632,
              6.452863
            ],
            [
              7.554774,
              6.453244
            ],
            [
              7.555155,
              6.454885
            ],
            [
              7.555404,
              6.45529
            ],
            [
              7.555971,
              6.45595
            ],
            [
              7.556361,
              6.457909
            ],
            [
              7.553976,
              6.458822
            ],
            [
              7.552947,
              6.459415
            ],
            [
              7.553028,
              6.460035
            ],
            [
              7.552049,
              6.460834
            ],
            [
              7.550312,
              6.462428
            ],
            [
              7.54779,
              6.463392
            ],
            [
              7.541806,
              6.462892
            ],
            [
              7.536297,
              6.462923
            ],
            [
              7.536303,
              6.464157
            ],
            [
              7.536035,
              6.467277
            ],
            [
              7.538011,
              6.467349
            ],
            [
              7.537609,
              6.476617
            ],
            [
              7.541966,
              6.476832
            ],
            [
              7.543943,
              6.47913
            ],
            [
              7.546932,
              6.479873
            ],
            [
              7.547141,
              6.480082
            ],
            [
              7.547236,
              6.48052
            ],
            [
              7.546737,
              6.483814
            ],
            [
              7.547428,
              6.484021
            ],
            [
              7.548261,
              6.483159
            ],
            [
              7.549034,
              6.483605
            ],
            [
              7.549689,
              6.483784
            ],
            [
              7.551949,
              6.483903
            ],
            [
              7.552395,
              6.483219
            ],
            [
              7.552633,
              6.483159
            ],
            [
              7.55305,
              6.483308
            ],
            [
              7.553585,
              6.484408
            ],
            [
              7.553258,
              6.486401
            ],
            [
              7.553853,
              6.487382
            ],
            [
              7.553258,
              6.488543
            ],
            [
              7.553674,
              6.488929
            ],
            [
              7.553704,
              6.489256
            ],
            [
              7.553377,
              6.491457
            ],
            [
              7.554572,
              6.49286
            ],
            [
              7.556554,
              6.492115
            ],
            [
              7.558481,
              6.499505
            ],
            [
              7.559524,
              6.505779
            ],
            [
              7.560123,
              6.509386
            ],
            [
              7.56631,
              6.516167
            ],
            [
              7.578802,
              6.516049
            ],
            [
              7.638921,
              6.518064
            ],
            [
              7.638969,
              6.514795
            ]
          ]
        ]
      }
    },
    {
      "type": "Feature",
      "id": "new_haven",
      "properties": {
        "faction_id": "new_haven",
        "name": "New Haven",
        "code": "NHV",
        "role": "unclaimed",
        "parent_id": null,
        "source": "OpenStreetMap",
        "osm_way_id": 273509966,
        "license": "ODbL-1.0",
        "attribution": "\u00a9 OpenStreetMap contributors",
        "status": "osm_polygon",
        "nested_in": null,
        "containment_rule": "smallest_containing",
        "color": "#1abc9c",
        "note": "OSM name is New Haven Layout. Unclaimed neighbourhood."
      },
      "geometry": {
        "type": "Polygon",
        "coordinates": [
          [
            [
              7.528448,
              6.460789
            ],
            [
              7.529278,
              6.460576
            ],
            [
              7.53012,
              6.460791
            ],
            [
              7.530779,
              6.461343
            ],
            [
              7.537987,
              6.461181
            ],
            [
              7.540123,
              6.458437
            ],
            [
              7.540214,
              6.457778
            ],
            [
              7.539967,
              6.454966
            ],
            [
              7.539115,
              6.455251
            ],
            [
              7.538687,
              6.454509
            ],
            [
              7.537002,
              6.45498
            ],
            [
              7.535517,
              6.453795
            ],
            [
              7.532234,
              6.453866
            ],
            [
              7.53132,
              6.453238
            ],
            [
              7.529078,
              6.45418
            ],
            [
              7.528621,
              6.453481
            ],
            [
              7.529221,
              6.45301
            ],
            [
              7.529007,
              6.452667
            ],
            [
              7.528893,
              6.45261
            ],
            [
              7.526337,
              6.453095
            ],
            [
              7.525024,
              6.45301
            ],
            [
              7.524638,
              6.45271
            ],
            [
              7.524481,
              6.452567
            ],
            [
              7.524124,
              6.453481
            ],
            [
              7.523053,
              6.453238
            ],
            [
              7.521169,
              6.454038
            ],
            [
              7.520284,
              6.453495
            ],
            [
              7.519042,
              6.454352
            ],
            [
              7.517985,
              6.454123
            ],
            [
              7.517229,
              6.455165
            ],
            [
              7.516286,
              6.454609
            ],
            [
              7.515701,
              6.455094
            ],
            [
              7.514787,
              6.454794
            ],
            [
              7.514216,
              6.455437
            ],
            [
              7.512774,
              6.454781
            ],
            [
              7.511542,
              6.457555
            ],
            [
              7.509589,
              6.457272
            ],
            [
              7.509584,
              6.457271
            ],
            [
              7.50953,
              6.457545
            ],
            [
              7.509542,
              6.458284
            ],
            [
              7.50991,
              6.459903
            ],
            [
              7.515944,
              6.459777
            ],
            [
              7.518956,
              6.459734
            ],
            [
              7.521483,
              6.459034
            ],
            [
              7.522154,
              6.459077
            ],
            [
              7.522711,
              6.459377
            ],
            [
              7.52431,
              6.461319
            ],
            [
              7.52501,
              6.461604
            ],
            [
              7.528448,
              6.460789
            ]
          ]
        ]
      }
    },
    {
      "type": "Feature",
      "id": "new_haven_extension",
      "properties": {
        "faction_id": "new_haven_extension",
        "name": "New Haven Extension",
        "code": "NHX",
        "role": "unclaimed",
        "parent_id": "new_haven",
        "source": "OpenStreetMap",
        "osm_way_id": 273509967,
        "license": "ODbL-1.0",
        "attribution": "\u00a9 OpenStreetMap contributors",
        "status": "osm_polygon",
        "nested_in": null,
        "containment_rule": "smallest_containing",
        "color": "#16a085",
        "note": "East extension. Treat as same neighbourhood as New Haven unless split later."
      },
      "geometry": {
        "type": "Polygon",
        "coordinates": [
          [
            [
              7.539979,
              6.455025
            ],
            [
              7.540223,
              6.457807
            ],
            [
              7.540133,
              6.458466
            ],
            [
              7.53997,
              6.458943
            ],
            [
              7.537996,
              6.461209
            ],
            [
              7.53659,
              6.461241
            ],
            [
              7.536797,
              6.462875
            ],
            [
              7.548563,
              6.463285
            ],
            [
              7.549479,
              6.462964
            ],
            [
              7.550312,
              6.462428
            ],
            [
              7.552049,
              6.460834
            ],
            [
              7.553028,
              6.460035
            ],
            [
              7.552947,
              6.459415
            ],
            [
              7.553976,
              6.458822
            ],
            [
              7.556361,
              6.457909
            ],
            [
              7.555971,
              6.45595
            ],
            [
              7.555404,
              6.45529
            ],
            [
              7.555155,
              6.454885
            ],
            [
              7.554774,
              6.453244
            ],
            [
              7.553191,
              6.452542
            ],
            [
              7.551645,
              6.453589
            ],
            [
              7.551169,
              6.453256
            ],
            [
              7.549908,
              6.453945
            ],
            [
              7.549705,
              6.454659
            ],
            [
              7.54779,
              6.454469
            ],
            [
              7.547088,
              6.45579
            ],
            [
              7.54497,
              6.455314
            ],
            [
              7.544233,
              6.456135
            ],
            [
              7.542591,
              6.454826
            ],
            [
              7.541782,
              6.454862
            ],
            [
              7.542222,
              6.454065
            ],
            [
              7.542032,
              6.453945
            ],
            [
              7.541758,
              6.453862
            ],
            [
              7.541032,
              6.454005
            ],
            [
              7.539979,
              6.455025
            ]
          ]
        ]
      }
    },
    {
      "type": "Feature",
      "id": "trans_ekulu",
      "properties": {
        "faction_id": "trans_ekulu",
        "name": "Trans-Ekulu",
        "code": "TEK",
        "role": "unclaimed",
        "parent_id": null,
        "source": "OpenStreetMap",
        "osm_way_id": 273510006,
        "license": "ODbL-1.0",
        "attribution": "\u00a9 OpenStreetMap contributors",
        "status": "osm_polygon",
        "nested_in": null,
        "containment_rule": "smallest_containing",
        "color": "#e74c3c",
        "note": null
      },
      "geometry": {
        "type": "Polygon",
        "coordinates": [
          [
            [
              7.505865,
              6.475614
            ],
            [
              7.508741,
              6.473009
            ],
            [
              7.509183,
              6.472738
            ],
            [
              7.509392,
              6.472418
            ],
            [
              7.508866,
              6.471786
            ],
            [
              7.507468,
              6.471191
            ],
            [
              7.50604,
              6.47247
            ],
            [
              7.505297,
              6.472648
            ],
            [
              7.502441,
              6.471459
            ],
            [
              7.499288,
              6.471369
            ],
            [
              7.496284,
              6.46902
            ],
            [
              7.495779,
              6.46893
            ],
            [
              7.494768,
              6.469079
            ],
            [
              7.492448,
              6.470418
            ],
            [
              7.489116,
              6.468722
            ],
            [
              7.487637,
              6.469248
            ],
            [
              7.48661,
              6.469286
            ],
            [
              7.485734,
              6.469286
            ],
            [
              7.483503,
              6.468304
            ],
            [
              7.481047,
              6.468304
            ],
            [
              7.480613,
              6.470378
            ],
            [
              7.480199,
              6.470334
            ],
            [
              7.479996,
              6.470949
            ],
            [
              7.479768,
              6.470949
            ],
            [
              7.479634,
              6.492307
            ],
            [
              7.493236,
              6.495238
            ],
            [
              7.5056,
              6.493981
            ],
            [
              7.50081,
              6.485838
            ],
            [
              7.500378,
              6.484112
            ],
            [
              7.500834,
              6.482356
            ],
            [
              7.505865,
              6.475614
            ]
          ]
        ]
      }
    },
    {
      "type": "Feature",
      "id": "trans_ekulu_extension",
      "properties": {
        "faction_id": "trans_ekulu_extension",
        "name": "Trans-Ekulu Extension",
        "code": "TEX",
        "role": "unclaimed",
        "parent_id": "trans_ekulu",
        "source": "OpenStreetMap",
        "osm_way_id": 259885129,
        "license": "ODbL-1.0",
        "attribution": "\u00a9 OpenStreetMap contributors",
        "status": "osm_polygon",
        "nested_in": null,
        "containment_rule": "smallest_containing",
        "color": "#c0392b",
        "note": "North of Trans-Ekulu. Same neighbourhood unless split later."
      },
      "geometry": {
        "type": "Polygon",
        "coordinates": [
          [
            [
              7.509548,
              6.501614
            ],
            [
              7.508289,
              6.500437
            ],
            [
              7.506443,
              6.500304
            ],
            [
              7.506081,
              6.499809
            ],
            [
              7.505657,
              6.498939
            ],
            [
              7.50675,
              6.496802
            ],
            [
              7.507146,
              6.496623
            ],
            [
              7.506993,
              6.496368
            ],
            [
              7.5056,
              6.493981
            ],
            [
              7.49261,
              6.495191
            ],
            [
              7.479634,
              6.492307
            ],
            [
              7.479826,
              6.489536
            ],
            [
              7.479038,
              6.489496
            ],
            [
              7.476999,
              6.49193
            ],
            [
              7.476737,
              6.495761
            ],
            [
              7.473363,
              6.502156
            ],
            [
              7.474024,
              6.502685
            ],
            [
              7.475666,
              6.502352
            ],
            [
              7.476142,
              6.502614
            ],
            [
              7.476594,
              6.502947
            ],
            [
              7.477237,
              6.502828
            ],
            [
              7.477474,
              6.502876
            ],
            [
              7.477736,
              6.503661
            ],
            [
              7.478022,
              6.503804
            ],
            [
              7.478545,
              6.504041
            ],
            [
              7.481496,
              6.504279
            ],
            [
              7.483447,
              6.506373
            ],
            [
              7.485589,
              6.50654
            ],
            [
              7.485922,
              6.505445
            ],
            [
              7.486088,
              6.505279
            ],
            [
              7.486421,
              6.505184
            ],
            [
              7.487587,
              6.505089
            ],
            [
              7.488277,
              6.50604
            ],
            [
              7.488515,
              6.506112
            ],
            [
              7.488777,
              6.506088
            ],
            [
              7.489967,
              6.504184
            ],
            [
              7.491585,
              6.503542
            ],
            [
              7.492917,
              6.504351
            ],
            [
              7.493298,
              6.502495
            ],
            [
              7.494654,
              6.502519
            ],
            [
              7.494964,
              6.501829
            ],
            [
              7.497319,
              6.501115
            ],
            [
              7.4982,
              6.501353
            ],
            [
              7.499199,
              6.500901
            ],
            [
              7.500246,
              6.501757
            ],
            [
              7.500912,
              6.501305
            ],
            [
              7.502982,
              6.501472
            ],
            [
              7.503791,
              6.502947
            ],
            [
              7.504862,
              6.502114
            ],
            [
              7.505957,
              6.502995
            ],
            [
              7.506433,
              6.501948
            ],
            [
              7.507123,
              6.502923
            ],
            [
              7.508836,
              6.503661
            ],
            [
              7.508944,
              6.502286
            ],
            [
              7.509288,
              6.501829
            ],
            [
              7.509548,
              6.501614
            ]
          ]
        ]
      }
    },
    {
      "type": "Feature",
      "id": "uwani",
      "properties": {
        "faction_id": "uwani",
        "name": "Uwani",
        "code": "UWA",
        "role": "unclaimed",
        "parent_id": null,
        "source": "OpenStreetMap",
        "osm_way_id": 273510010,
        "license": "ODbL-1.0",
        "attribution": "\u00a9 OpenStreetMap contributors",
        "status": "osm_polygon",
        "nested_in": null,
        "containment_rule": "smallest_containing",
        "color": "#34495e",
        "note": null
      },
      "geometry": {
        "type": "Polygon",
        "coordinates": [
          [
            [
              7.494582,
              6.395715
            ],
            [
              7.49421,
              6.401099
            ],
            [
              7.495691,
              6.407237
            ],
            [
              7.495787,
              6.408872
            ],
            [
              7.495868,
              6.410095
            ],
            [
              7.494755,
              6.416094
            ],
            [
              7.48846,
              6.419059
            ],
            [
              7.482741,
              6.41989
            ],
            [
              7.482372,
              6.420117
            ],
            [
              7.482045,
              6.420465
            ],
            [
              7.481841,
              6.420845
            ],
            [
              7.481687,
              6.421468
            ],
            [
              7.483649,
              6.425725
            ],
            [
              7.483946,
              6.427569
            ],
            [
              7.486236,
              6.430335
            ],
            [
              7.487247,
              6.431197
            ],
            [
              7.488208,
              6.431825
            ],
            [
              7.492773,
              6.427212
            ],
            [
              7.493613,
              6.427959
            ],
            [
              7.493829,
              6.428155
            ],
            [
              7.494572,
              6.427342
            ],
            [
              7.496438,
              6.425228
            ],
            [
              7.496989,
              6.425886
            ],
            [
              7.507479,
              6.41023
            ],
            [
              7.507808,
              6.409974
            ],
            [
              7.508379,
              6.409556
            ],
            [
              7.509959,
              6.409251
            ],
            [
              7.513233,
              6.410945
            ],
            [
              7.515727,
              6.410774
            ],
            [
              7.51645,
              6.410603
            ],
            [
              7.516317,
              6.409061
            ],
            [
              7.516755,
              6.408813
            ],
            [
              7.517618,
              6.408162
            ],
            [
              7.51544,
              6.407635
            ],
            [
              7.515401,
              6.406721
            ],
            [
              7.513898,
              6.406893
            ],
            [
              7.513422,
              6.406683
            ],
            [
              7.512794,
              6.406379
            ],
            [
              7.510643,
              6.405256
            ],
            [
              7.5099,
              6.404304
            ],
            [
              7.509272,
              6.404152
            ],
            [
              7.508891,
              6.404133
            ],
            [
              7.506569,
              6.404571
            ],
            [
              7.504779,
              6.403238
            ],
            [
              7.503352,
              6.402781
            ],
            [
              7.502686,
              6.403067
            ],
            [
              7.502476,
              6.401411
            ],
            [
              7.500182,
              6.400477
            ],
            [
              7.498825,
              6.399477
            ],
            [
              7.498683,
              6.398635
            ],
            [
              7.497954,
              6.398849
            ],
            [
              7.497069,
              6.397793
            ],
            [
              7.496498,
              6.397721
            ],
            [
              7.496527,
              6.396922
            ],
            [
              7.495899,
              6.396907
            ],
            [
              7.495556,
              6.39568
            ],
            [
              7.494582,
              6.395715
            ]
          ]
        ]
      }
    },
    {
      "type": "Feature",
      "id": "ogui",
      "properties": {
        "faction_id": "ogui",
        "name": "Ogui",
        "code": "OGI",
        "role": "unclaimed",
        "parent_id": null,
        "source": "OpenStreetMap",
        "osm_way_id": 273509976,
        "license": "ODbL-1.0",
        "attribution": "\u00a9 OpenStreetMap contributors",
        "status": "osm_polygon",
        "nested_in": null,
        "containment_rule": "smallest_containing",
        "color": "#e91e63",
        "note": null
      },
      "geometry": {
        "type": "Polygon",
        "coordinates": [
          [
            [
              7.509589,
              6.457272
            ],
            [
              7.511542,
              6.457555
            ],
            [
              7.512582,
              6.455327
            ],
            [
              7.51211,
              6.455125
            ],
            [
              7.511884,
              6.453947
            ],
            [
              7.510706,
              6.453602
            ],
            [
              7.510742,
              6.452388
            ],
            [
              7.508386,
              6.451377
            ],
            [
              7.508339,
              6.450663
            ],
            [
              7.507696,
              6.449961
            ],
            [
              7.508137,
              6.448997
            ],
            [
              7.507851,
              6.448545
            ],
            [
              7.507351,
              6.449057
            ],
            [
              7.506887,
              6.448843
            ],
            [
              7.506638,
              6.448212
            ],
            [
              7.507125,
              6.447046
            ],
            [
              7.506566,
              6.446666
            ],
            [
              7.506269,
              6.445678
            ],
            [
              7.504912,
              6.445452
            ],
            [
              7.504365,
              6.44481
            ],
            [
              7.503366,
              6.444548
            ],
            [
              7.502438,
              6.443227
            ],
            [
              7.501081,
              6.442823
            ],
            [
              7.50034,
              6.440628
            ],
            [
              7.499255,
              6.4397
            ],
            [
              7.499341,
              6.439343
            ],
            [
              7.498498,
              6.439029
            ],
            [
              7.497913,
              6.437873
            ],
            [
              7.496357,
              6.438044
            ],
            [
              7.495686,
              6.436545
            ],
            [
              7.493176,
              6.436057
            ],
            [
              7.490854,
              6.433963
            ],
            [
              7.489911,
              6.434468
            ],
            [
              7.488118,
              6.437558
            ],
            [
              7.489416,
              6.437837
            ],
            [
              7.490816,
              6.438846
            ],
            [
              7.492676,
              6.44219
            ],
            [
              7.497385,
              6.448007
            ],
            [
              7.497471,
              6.451604
            ],
            [
              7.499983,
              6.455402
            ],
            [
              7.50351,
              6.458157
            ],
            [
              7.50991,
              6.459901
            ],
            [
              7.509589,
              6.457272
            ]
          ]
        ]
      }
    },
    {
      "type": "Feature",
      "id": "thinkers_corner",
      "properties": {
        "faction_id": "thinkers_corner",
        "name": "Thinkers Corner",
        "code": "THK",
        "role": "unclaimed",
        "parent_id": null,
        "source": "OpenStreetMap",
        "osm_way_id": 273509994,
        "license": "ODbL-1.0",
        "attribution": "\u00a9 OpenStreetMap contributors",
        "status": "osm_polygon",
        "nested_in": null,
        "containment_rule": "smallest_containing",
        "color": "#00bcd4",
        "note": null
      },
      "geometry": {
        "type": "Polygon",
        "coordinates": [
          [
            [
              7.531604,
              6.47773
            ],
            [
              7.533436,
              6.477564
            ],
            [
              7.53605,
              6.47641
            ],
            [
              7.537593,
              6.476736
            ],
            [
              7.538001,
              6.46732
            ],
            [
              7.537836,
              6.467314
            ],
            [
              7.536026,
              6.467249
            ],
            [
              7.536294,
              6.464129
            ],
            [
              7.536288,
              6.462894
            ],
            [
              7.536787,
              6.462847
            ],
            [
              7.536581,
              6.461212
            ],
            [
              7.530779,
              6.461343
            ],
            [
              7.53012,
              6.460791
            ],
            [
              7.529278,
              6.460576
            ],
            [
              7.52501,
              6.461604
            ],
            [
              7.522154,
              6.459077
            ],
            [
              7.520415,
              6.45944
            ],
            [
              7.520397,
              6.45974
            ],
            [
              7.519855,
              6.462639
            ],
            [
              7.521756,
              6.46281
            ],
            [
              7.521779,
              6.464702
            ],
            [
              7.520876,
              6.468675
            ],
            [
              7.518069,
              6.473196
            ],
            [
              7.51731,
              6.476565
            ],
            [
              7.517752,
              6.476362
            ],
            [
              7.518133,
              6.476077
            ],
            [
              7.519608,
              6.476909
            ],
            [
              7.521725,
              6.476767
            ],
            [
              7.522392,
              6.476362
            ],
            [
              7.522665,
              6.476231
            ],
            [
              7.522963,
              6.476243
            ],
            [
              7.525283,
              6.476362
            ],
            [
              7.527591,
              6.477611
            ],
            [
              7.531604,
              6.47773
            ]
          ]
        ]
      }
    }
  ]
}